[{"OBJECT_NAME":"MOHAMMED VI-A","OBJECT_ID":"2017-070A","EPOCH":"2026-03-09T23:14:54.770208","MEAN_MOTION":14.771271,"ECCENTRICITY":0.00014633,"INCLINATION":97.9427,"RA_OF_ASC_NODE":142.7067,"ARG_OF_PERICENTER":97.7701,"MEAN_ANOMALY":262.3676,"EPHEMERIS_TYPE":0,"CLASSIFICATION_TYPE":"U","NORAD_CAT_ID":43005,"ELEMENT_SET_NO":999,"REV_AT_EPOCH":44933,"BSTAR":0.00019951362,"MEAN_MOTION_DOT":1.36e-5,"MEAN_MOTION_DDOT":0},{"OBJECT_NAME":"CZ-6A DEB","OBJECT_ID":"2024-140JV","EPOCH":"2026-03-09T12:42:13.616064","MEAN_MOTION":14.57005514,"ECCENTRICITY":0.01088917,"INCLINATION":88.9372,"RA_OF_ASC_NODE":277.8319,"ARG_OF_PERICENTER":255.3693,"MEAN_ANOMALY":103.5425,"EPHEMERIS_TYPE":0,"CLASSIFICATION_TYPE":"U","NORAD_CAT_ID":60866,"ELEMENT_SET_NO":999,"REV_AT_EPOCH":8303,"BSTAR":0.00063879028,"MEAN_MOTION_DOT":3.13e-5,"MEAN_MOTION_DDOT":0}]
